[{"OBJECT_NAME":"TIANMU-1 10","OBJECT_ID":"2023-101D","EPOCH":"2026-03-09T23:06:46.939392","MEAN_MOTION":15.2921896,"ECCENTRICITY":0.00069292,"INCLINATION":97.2749,"RA_OF_ASC_NODE":122.1027,"ARG_OF_PERICENTER":133.6162,"MEAN_ANOMALY":226.5654,"EPHEMERIS_TYPE":0,"CLASSIFICATION_TYPE":"U","NORAD_CAT_ID":57402,"ELEMENT_SET_NO":999,"REV_AT_EPOCH":14647,"BSTAR":0.00032238884,"MEAN_MOTION_DOT":9.075e-5,"MEAN_MOTION_DDOT":0},{"OBJECT_NAME":"STARLINK-30883","OBJECT_ID":"2023-171Y","EPOCH":"2026-03-09T22:00:01.999584","MEAN_MOTION":15.26707951,"ECCENTRICITY":0.00011668,"INCLINATION":43.0021,"RA_OF_ASC_NODE":283.6097,"ARG_OF_PERICENTER":279.8259,"MEAN_ANOMALY":59.7575,"EPHEMERIS_TYPE":0,"CLASSIFICATION_TYPE":"U","NORAD_CAT_ID":58252,"ELEMENT_SET_NO":999,"REV_AT_EPOCH":578,"BSTAR":0.00036522307,"MEAN_MOTION_DOT":9.54e-5,"MEAN_MOTION_DDOT":0}]
